start=new Date('2022-05-20T00:00:00.000Z').valueOf();
sats=[{"LAUNCH_DATE":"2021-04-07","APOAPSIS":"548.305","COUNTRY_CODE":"US","OBJECT_TYPE":"PAYLOAD","MEAN_MOTION_DDOT":"0.0000000000000","RCS_SIZE":"LARGE","ELEMENT_SET_NO":"999","CENTER_NAME":"EARTH","TIME_SYSTEM":"UTC","GP_ID":"203992865","ECCENTRICITY":"0.00015570","FILE":"3453898","INCLINATION":"53.0552","EPOCH":"2022-05-20T01:32:41.633664","SEMIMAJOR_AXIS":"6925.362","MEAN_ELEMENT_THEORY":"SGP4","MEAN_MOTION":"15.06395717","EPHEMERIS_TYPE":"0","NORAD_CAT_ID":"48104","SITE":"AFETR","TLE_LINE1":"1 48104U 21027N   22140.06437076 -.00000351  00000-0 -46734-5 0  9991","TLE_LINE2":"2 48104  53.0552 274.9017 0001557  78.0566 282.0597 15.06395717 62789","OBJECT_ID":"2021-027N","MEAN_MOTION_DOT":"-0.00000351","PERIOD":"95.592","MEAN_ANOMALY":"282.0597","REV_AT_EPOCH":"6278","OBJECT_NAME":"STARLINK-2439","BSTAR":"-0.00000467340000","ARG_OF_PERICENTER":"78.0566","REF_FRAME":"TEME","CLASSIFICATION_TYPE":"U","PERIAPSIS":"546.148","RA_OF_ASC_NODE":"274.9017","DECAY_DATE":null},{"LAUNCH_DATE":"2021-04-07","APOAPSIS":"548.352","MEAN_MOTION_DDOT":"0.0000000000000","OBJECT_TYPE":"PAYLOAD","COUNTRY_CODE":"US","CENTER_NAME":"EARTH","TIME_SYSTEM":"UTC","ELEMENT_SET_NO":"999","RCS_SIZE":"LARGE","MEAN_ELEMENT_THEORY":"SGP4","SEMIMAJOR_AXIS":"6925.389","MEAN_MOTION":"15.06386765","FILE":"3453812","INCLINATION":"53.0534","EPOCH":"2022-05-19T15:21:37.992384","GP_ID":"203988361","ECCENTRICITY":"0.00015860","OBJECT_ID":"2021-027P","NORAD_CAT_ID":"48105","SITE":"AFETR","TLE_LINE1":"1 48105U 21027P   22139.64002306 -.00001794  00000-0 -10163-3 0  9995","TLE_LINE2":"2 48105  53.0534 221.8012 0001586  50.4598 309.6531 15.06386765 63886","EPHEMERIS_TYPE":"0","MEAN_ANOMALY":"309.6531","PERIOD":"95.593","MEAN_MOTION_DOT":"-0.00001794","BSTAR":"-0.00010163000000","ARG_OF_PERICENTER":"50.4598","OBJECT_NAME":"STARLINK-2440","REV_AT_EPOCH":"6388","DECAY_DATE":null,"RA_OF_ASC_NODE":"221.8012","REF_FRAME":"TEME","PERIAPSIS":"546.156","CLASSIFICATION_TYPE":"U"},{"COUNTRY_CODE":"US","OBJECT_TYPE":"PAYLOAD","MEAN_MOTION_DDOT":"0.0000000000000","LAUNCH_DATE":"2021-04-07","APOAPSIS":"548.102","ECCENTRICITY":"0.00014110","GP_ID":"203957124","INCLINATION":"53.0568","EPOCH":"2022-05-19T14:59:01.280832","FILE":"3453460","MEAN_MOTION":"15.06428967","SEMIMAJOR_AXIS":"6925.260","MEAN_ELEMENT_THEORY":"SGP4","RCS_SIZE":"LARGE","ELEMENT_SET_NO":"999","TIME_SYSTEM":"UTC","CENTER_NAME":"EARTH","MEAN_MOTION_DOT":"0.00004297","PERIOD":"95.590","MEAN_ANOMALY":"276.4803","EPHEMERIS_TYPE":"0","TLE_LINE2":"2 48106  53.0568 271.8794 0001411  83.6347 276.4803 15.06428967 62785","TLE_LINE1":"1 48106U 21027Q   22139.62432038  .00004297  00000-0  30693-3 0  9992","SITE":"AFETR","NORAD_CAT_ID":"48106","OBJECT_ID":"2021-027Q","CLASSIFICATION_TYPE":"U","PERIAPSIS":"546.148","REF_FRAME":"TEME","RA_OF_ASC_NODE":"271.8794","DECAY_DATE":null,"REV_AT_EPOCH":"6278","OBJECT_NAME":"STARLINK-2442","BSTAR":"0.00030693000000","ARG_OF_PERICENTER":"83.6347"},{"MEAN_MOTION_DOT":"-0.00000746","PERIOD":"95.593","MEAN_ANOMALY":"283.7488","EPHEMERIS_TYPE":"0","NORAD_CAT_ID":"48107","SITE":"AFETR","TLE_LINE1":"1 48107U 21027R   22139.83814418 -.00000746  00000-0 -31223-4 0  9990","TLE_LINE2":"2 48107  53.0568 270.9061 0001275  76.3643 283.7488 15.06392286 62817","OBJECT_ID":"2021-027R","REF_FRAME":"TEME","CLASSIFICATION_TYPE":"U","PERIAPSIS":"546.354","RA_OF_ASC_NODE":"270.9061","DECAY_DATE":null,"REV_AT_EPOCH":"6281","OBJECT_NAME":"STARLINK-2443","BSTAR":"-0.00003122300000","ARG_OF_PERICENTER":"76.3643","COUNTRY_CODE":"US","OBJECT_TYPE":"PAYLOAD","MEAN_MOTION_DDOT":"0.0000000000000","LAUNCH_DATE":"2021-04-07","APOAPSIS":"548.120","GP_ID":"203992869","ECCENTRICITY":"0.00012750","FILE":"3453899","INCLINATION":"53.0568","EPOCH":"2022-05-19T20:06:55.657152","SEMIMAJOR_AXIS":"6925.372","MEAN_ELEMENT_THEORY":"SGP4","MEAN_MOTION":"15.06392286","RCS_SIZE":"LARGE","ELEMENT_SET_NO":"999","CENTER_NAME":"EARTH","TIME_SYSTEM":"UTC"},{"GP_ID":"203992900","ECCENTRICITY":"0.00015150","MEAN_ELEMENT_THEORY":"SGP4","SEMIMAJOR_AXIS":"6925.348","MEAN_MOTION":"15.06400074","FILE":"3453928","INCLINATION":"53.0558","EPOCH":"2022-05-20T01:50:35.800800","ELEMENT_SET_NO":"999","RCS_SIZE":"LARGE","CENTER_NAME":"EARTH","TIME_SYSTEM":"UTC","OBJECT_TYPE":"PAYLOAD","COUNTRY_CODE":"US","MEAN_MOTION_DDOT":"0.0000000000000","APOAPSIS":"548.263","LAUNCH_DATE":"2021-04-07","REF_FRAME":"TEME","CLASSIFICATION_TYPE":"U","PERIAPSIS":"546.164","DECAY_DATE":null,"RA_OF_ASC_NODE":"279.8410","OBJECT_NAME":"STARLINK-2444","REV_AT_EPOCH":"6271","BSTAR":"0.00002432800000","ARG_OF_PERICENTER":"76.4841","MEAN_MOTION_DOT":"0.00000081","MEAN_ANOMALY":"283.6317","PERIOD":"95.592","EPHEMERIS_TYPE":"0","OBJECT_ID":"2021-027S","NORAD_CAT_ID":"48108","SITE":"AFETR","TLE_LINE1":"1 48108U 21027S   22140.07680325  .00000081  00000-0  24328-4 0  9995","TLE_LINE2":"2 48108  53.0558 279.8410 0001515  76.4841 283.6317 15.06400074 62715"},{"REF_FRAME":"TEME","PERIAPSIS":"545.972","CLASSIFICATION_TYPE":"U","RA_OF_ASC_NODE":"290.6720","DECAY_DATE":null,"REV_AT_EPOCH":"6294","OBJECT_NAME":"STARLINK-2445","BSTAR":"-0.00003444400000","ARG_OF_PERICENTER":"75.7056","MEAN_MOTION_DOT":"-0.00000794","PERIOD":"95.593","MEAN_ANOMALY":"284.4137","EPHEMERIS_TYPE":"0","NORAD_CAT_ID":"48109","SITE":"AFETR","TLE_LINE2":"2 48109  53.0545 290.6720 0001838  75.7056 284.4137 15.06389648 62942","TLE_LINE1":"1 48109U 21027T   22139.89159281 -.00000794  00000-0 -34444-4 0  9999","OBJECT_ID":"2021-027T","GP_ID":"203987862","ECCENTRICITY":"0.00018380","FILE":"3453812","INCLINATION":"53.0545","EPOCH":"2022-05-19T21:23:53.618784","SEMIMAJOR_AXIS":"6925.380","MEAN_ELEMENT_THEORY":"SGP4","MEAN_MOTION":"15.06389648","RCS_SIZE":"LARGE","ELEMENT_SET_NO":"999","CENTER_NAME":"EARTH","TIME_SYSTEM":"UTC","COUNTRY_CODE":"US","OBJECT_TYPE":"PAYLOAD","MEAN_MOTION_DDOT":"0.0000000000000","LAUNCH_DATE":"2021-04-07","APOAPSIS":"548.518"},{"MEAN_MOTION_DDOT":"0.0000000000000","OBJECT_TYPE":"PAYLOAD","COUNTRY_CODE":"US","LAUNCH_DATE":"2021-04-07","APOAPSIS":"548.105","SEMIMAJOR_AXIS":"6925.350","MEAN_ELEMENT_THEORY":"SGP4","MEAN_MOTION":"15.06399631","FILE":"3453812","EPOCH":"2022-05-19T19:12:30.731616","INCLINATION":"53.0554","GP_ID":"203987111","ECCENTRICITY":"0.00012860","CENTER_NAME":"EARTH","TIME_SYSTEM":"UTC","ELEMENT_SET_NO":"999","RCS_SIZE":"LARGE","MEAN_ANOMALY":"282.7474","PERIOD":"95.592","MEAN_MOTION_DOT":"0.00001883","OBJECT_ID":"2021-027U","SITE":"AFETR","NORAD_CAT_ID":"48110","TLE_LINE2":"2 48110  53.0554 281.0809 0001286  77.3659 282.7474 15.06399631 63073","TLE_LINE1":"1 48110U 21027U   22139.80035569  .00001883  00000-0  14529-3 0  9993","EPHEMERIS_TYPE":"0","DECAY_DATE":null,"RA_OF_ASC_NODE":"281.0809","REF_FRAME":"TEME","PERIAPSIS":"546.324","CLASSIFICATION_TYPE":"U","BSTAR":"0.00014529000000","ARG_OF_PERICENTER":"77.3659","OBJECT_NAME":"STARLINK-2447","REV_AT_EPOCH":"6307"},{"RA_OF_ASC_NODE":"279.8899","DECAY_DATE":null,"REF_FRAME":"TEME","PERIAPSIS":"545.881","CLASSIFICATION_TYPE":"U","BSTAR":"-0.00489820000000","ARG_OF_PERICENTER":"71.5540","REV_AT_EPOCH":"6271","OBJECT_NAME":"STARLINK-2448","PERIOD":"95.586","MEAN_ANOMALY":"288.5611","MEAN_MOTION_DOT":"-0.00072691","SITE":"AFETR","NORAD_CAT_ID":"48111","TLE_LINE1":"1 48111U 21027V   22140.05832952 -.00072691  00000-0 -48982-2 0  9990","TLE_LINE2":"2 48111  53.0559 279.8899 0001491  71.5540 288.5611 15.06498031 62717","OBJECT_ID":"2021-027V","EPHEMERIS_TYPE":"0","FILE":"3453901","INCLINATION":"53.0559","EPOCH":"2022-05-20T01:23:59.670528","MEAN_ELEMENT_THEORY":"SGP4","SEMIMAJOR_AXIS":"6925.048","MEAN_MOTION":"15.06498031","GP_ID":"203992912","ECCENTRICITY":"0.00014910","CENTER_NAME":"EARTH","TIME_SYSTEM":"UTC","RCS_SIZE":"LARGE","ELEMENT_SET_NO":"999","MEAN_MOTION_DDOT":"0.0000000000000","COUNTRY_CODE":"US","OBJECT_TYPE":"PAYLOAD","APOAPSIS":"547.946","LAUNCH_DATE":"2021-04-07"},{"FILE":"3453812","INCLINATION":"53.0534","EPOCH":"2022-05-19T16:53:49.148448","SEMIMAJOR_AXIS":"6925.399","MEAN_ELEMENT_THEORY":"SGP4","MEAN_MOTION":"15.06383401","GP_ID":"203987612","ECCENTRICITY":"0.00021070","CENTER_NAME":"EARTH","TIME_SYSTEM":"UTC","RCS_SIZE":"LARGE","ELEMENT_SET_NO":"999","MEAN_MOTION_DDOT":"0.0000000000000","COUNTRY_CODE":"US","OBJECT_TYPE":"PAYLOAD","LAUNCH_DATE":"2021-04-07","APOAPSIS":"548.724","RA_OF_ASC_NODE":"296.5039","DECAY_DATE":null,"REF_FRAME":"TEME","CLASSIFICATION_TYPE":"U","PERIAPSIS":"545.805","BSTAR":"-0.00002374600000","ARG_OF_PERICENTER":"74.0975","REV_AT_EPOCH":"6284","OBJECT_NAME":"STARLINK-2449","PERIOD":"95.593","MEAN_ANOMALY":"286.0246","MEAN_MOTION_DOT":"-0.00000635","NORAD_CAT_ID":"48112","SITE":"AFETR","TLE_LINE2":"2 48112  53.0534 296.5039 0002107  74.0975 286.0246 15.06383401 62843","TLE_LINE1":"1 48112U 21027W   22139.70404107 -.00000635  00000-0 -23746-4 0  9990","OBJECT_ID":"2021-027W","EPHEMERIS_TYPE":"0"},{"MEAN_ANOMALY":"271.9888","PERIOD":"95.592","MEAN_MOTION_DOT":"-0.00000099","OBJECT_ID":"2021-027X","TLE_LINE1":"1 48113U 21027X   22139.72203353 -.00000099  00000-0  12289-4 0  9996","TLE_LINE2":"2 48113  53.0581 291.4342 0001741  88.1300 271.9888 15.06394776 62514","SITE":"AFETR","NORAD_CAT_ID":"48113","EPHEMERIS_TYPE":"0","DECAY_DATE":null,"RA_OF_ASC_NODE":"291.4342","PERIAPSIS":"546.024","CLASSIFICATION_TYPE":"U","REF_FRAME":"TEME","BSTAR":"0.00001228900000","ARG_OF_PERICENTER":"88.1300","OBJECT_NAME":"STARLINK-2450","REV_AT_EPOCH":"6251","MEAN_MOTION_DDOT":"0.0000000000000","OBJECT_TYPE":"PAYLOAD","COUNTRY_CODE":"US","LAUNCH_DATE":"2021-04-07","APOAPSIS":"548.435","MEAN_MOTION":"15.06394776","SEMIMAJOR_AXIS":"6925.365","MEAN_ELEMENT_THEORY":"SGP4","INCLINATION":"53.0581","EPOCH":"2022-05-19T17:19:43.696992","FILE":"3453602","ECCENTRICITY":"0.00017410","GP_ID":"203960976","TIME_SYSTEM":"UTC","CENTER_NAME":"EARTH","ELEMENT_SET_NO":"999","RCS_SIZE":"LARGE"}];
